KOSEN-1
1 49402U 21102H   25317.07665255  .00020778  00000-0  88480-3 0  9994
2 49402  97.3523 358.5919 0013356 247.9937 111.9881 15.22923039221087
CAMSAT XW-3 (CAS-9)
1 50466U 21131B   25317.21079322  .00002209  00000-0  70007-3 0  9993
2 50466  98.5064  45.7803 0004640  40.5962 319.5572 14.41053498204009
VZLUSAT-2
1 51085U 22002DF  25317.21762016  .00698616  20715-3  18642-2 0  9995
2 51085  97.3088  36.9324 0004433 285.4246  74.6540 15.94536273213825
INSPIRESAT-1
1 51657U 22013B   25317.06144876  .00075450  00000-0  10299-2 0  9990
2 51657  97.4686 352.5288 0006589 119.1128 241.0788 15.57211580208623
GOES-18
1 51850U 22021A   25317.14871405  .00000095  00000-0  00000+0 0  9997
2 51850   0.0453  94.2958 0000787 189.4225  45.3537  1.00271743  4425
MERIDIAN-10
1 52145U 22030A   25316.63210890  .00000283  00000-0  00000+0 0  9992
2 52145  62.6611 163.7136 6740954 273.1346  17.9183  2.00593509 26683
BRO-6
1 52422U 22047AE  25317.23689584  .00029458  00000-0  72999-3 0  9990
2 52422  97.3557  40.8922 0005949 125.8948 234.2851 15.40338042197813
CONNECTA-T1
1 52739U 22057H   25316.37060960  .00259505  00000-0  16263-2 0  9996
2 52739  97.6217 107.6897 0001031 152.7327 207.3992 15.76051555193432
STEP CUBELAB-II
1 52897U 22065D   25317.16084733  .00003294  00000-0  65476-3 0  9995
2 52897  98.1926  97.2108 0008295 350.0368  10.0668 14.62777673179912
RANDEV
1 52898U 22065E   25317.14845073  .00003522  00000-0  69416-3 0  9998
2 52898  98.1915  97.4578 0007624 351.5016   8.6056 14.63124487179650
SNUGLITE-II
1 52899U 22065F   25317.13517189  .00003512  00000-0  68327-3 0  9991
2 52899  98.1903  97.8414 0007182 350.8639   9.2432 14.63712332179380
MIMAN
1 52900U 22065G   25316.66199344  .00001709  00000-0  35435-3 0  9990
2 52900  98.1958  95.7028 0007332 352.5645   7.5446 14.61464670178814
GREENCUBE (IO-117)
1 53106U 22080B   25051.21822557 -.00000003  00000-0  00000 0 0  9995
2 53106  70.1434 106.3440 0008542  48.0089 312.1297  6.42557744 61200
ROBUSTA 1F (MTCUBE-2)
1 53109U 22080E   25313.58128494 -.00000003  00000-0  00000-0 0  9999
2 53109  70.1632  14.6126 0008893 335.0626  24.9603  6.42583302 77957
BLUEWALKER-3
1 53807U 22111AL  25317.02351647  .00015279  00000-0  44849-3 0  9992
2 53807  53.2319 326.6959 0005035 221.4140 138.6483 15.35361999176968
ELEKTRO-L4
1 55506U 23016A   25316.39554134 -.00000062  00000-0  00000-0 0  9993
2 55506   0.0389 207.5911 0002723  35.7531 116.6466  1.00271159 10160
SHARJAHSAT-1
1 55104U 23001CZ  25317.14316699  .00046081  00000-0  11538-2 0  9997
2 55104  97.3513  18.9214 0007585 156.9791 203.1797 15.39915228159147
METEOR M2-3
1 57166U 23091A   25317.18089295  .00000082  00000-0  54810-4 0  9992
2 57166  98.6422  11.2301 0005044  82.0667 278.1084 14.24020805123774
STRATOSAT-TK1 (RS52S)
1 57167U 23091B   25317.13908813  .00246220  00000-0  26212-2 0  9993
2 57167  97.5285  27.3982 0003811 108.0680 252.0994 15.63193188132238
RESHUCUBE-2 (RS37S)
1 57168U 23091C   25317.12709385  .00023299  00000-0  10302-2 0  9998
2 57168  97.5361  13.7904 0013548 140.4440 219.7787 15.21617031131342
RASSVET 1-1
1 57169U 23091D   25317.11859024  .00020639  00000-0  95731-3 0  9999
2 57169  97.5429  13.4542 0012246 133.1111 227.1150 15.20014460131298
RASSVET 1-2
1 57170U 23091E   25317.11872552  .00020611  00000-0  95632-3 0  9992
2 57170  97.5434  13.5164 0011205 125.1421 235.0865 15.20014488131297
RASSVET 1-3
1 57171U 23091F   25317.11844191  .00020771  00000-0  96316-3 0  9998
2 57171  97.5430  13.4777 0012925 142.9353 217.2777 15.20014455131292
UMKA-1 (RS40S)
1 57172U 23091G   25317.14265652  .00015901  00000-0  79130-3 0  9995
2 57172  97.5387  11.7410 0014585 146.8631 213.3519 15.17596682131200
SATURN (RS43S)
1 57174U 23091J   25317.12968385  .00010884  00000-0  63688-3 0  9994
2 57174  97.5396   8.1803 0014215 166.5122 193.6491 15.11933659130966
CUBEBEL-2 (EU11S)
1 57175U 23091K   25317.16461022  .00027945  00000-0  11861-2 0  9996
2 57175  97.5386  13.9965 0011913 149.7010 210.4917 15.22991341131359
SITRO-AIS-5 (ANOKHIN)
1 57176U 23091L   25317.16933624  .00032387  00000-0  13523-2 0  9992
2 57176  97.5390  14.5384 0013901 139.1071 221.1211 15.23490590131386
ZORKIY-2M
1 57177U 23091M   25317.18043050  .00020628  00000-0  10337-2 0  9995
2 57177  97.5425  11.9647 0015242 144.4703 215.7548 15.17286838131204
CUBESX-HSE-3 (RS42S)
1 57178U 23091N   25317.15754785  .00034516  00000-0  13895-2 0  9990
2 57178  97.5419  15.6331 0013497 131.3516 228.8885 15.24712557131430
PHI-DEMO
1 57181U 23091R   25317.19135337  .00011049  00000-0  63335-3 0  9995
2 57181  97.5401   8.8650 0016447 158.2623 201.9309 15.12642429131012
MONITOR-3 (RS58S)
1 57180U 23091Q   25317.17950350  .00029556  00000-0  12709-2 0  9992
2 57180  97.5412  14.4614 0014147 135.3258 224.9120 15.22509609131368
NORBY-2
1 57179U 23091P   25317.17653811  .00014795  00000-0  80964-3 0  9990
2 57179  97.5429  10.2146 0016397 148.7478 211.4732 15.14233097131073
MONITOR-4 (RS57S)
1 57182U 23091S   25317.17026779  .00030350  00000-0  13023-2 0  9997
2 57182  97.5408  14.4122 0014148 135.7515 224.4855 15.22575408131360
MONITOR-2 (RS39S)
1 57184U 23091U   25317.19347775  .00016052  00000-0  83047-3 0  9990
2 57184  97.5411  11.8516 0012899 138.0647 222.1576 15.16251630131194
SVYATOBOR-1 (RS60S)
1 57187U 23091X   25317.17772919  .00023874  00000-0  10446-2 0  9995
2 57187  97.5418  15.1061 0011570 126.5913 233.6389 15.21993118131402
VIZARD-METEO (RS38S)
1 57189U 23091Z   25317.18528238  .00039859  00000-0  14488-2 0  9991
2 57189  97.5408  18.2196 0009795 115.9819 244.2430 15.28113688131610
NANOZOND-1 (RS49S)
1 57190U 23091AA  25317.19391816  .00107295  00000-0  19890-2 0  9996
2 57190  97.5352  25.7038 0005289 101.3970 258.7875 15.48575108132120
SITRO-AIS-6 (CHIRKIN)
1 57192U 23091AC  25317.19117762  .00018599  00000-0  80514-3 0  9994
2 57192  97.5388  14.4873 0014110 138.4923 221.7387 15.22379984131386
SITRO-AIS-8 (SHCHUKIN)
1 57193U 23091AD  25317.17447300  .00036492  00000-0  14450-2 0  9994
2 57193  97.5385  15.4069 0013167 137.4213 222.8048 15.25256292131446
SITRO-AIS-7 (SHEFFER)
1 57194U 23091AE  25317.22524253  .00016877  00000-0  73486-3 0  9994
2 57194  97.5391  14.4309 0013957 138.8135 221.4156 15.22206250131389
AVION KALUGA 650
1 57195U 23091AF  25317.22454275  .00016650  00000-0  83493-3 0  9999
2 57195  97.5427  12.7146 0012160 136.7182 223.5008 15.17348337131245
SITRO-AIS-10 (KATYS)
1 57199U 23091AK  25317.10586487  .00045791  00000-0  15949-2 0  9999
2 57199  97.5399  18.5726 0009472 118.8948 241.3243 15.29480745131633
SITRO-AIS-9 (BURDAEV)
1 57201U 23091AM  25317.21066866  .00037807  00000-0  13289-2 0  9993
2 57201  97.5397  18.5362 0009448 119.4692 240.7491 15.29230109131643
UTMN-2 (RS27S)
1 57203U 23091AP  25317.17084237  .00033848  00000-0  13251-2 0  9992
2 57203  97.5408  17.0055 0010534 119.2410 240.9883 15.25684008131537
SITRO-AIS-12 (FARTUSHNY)
1 57204U 23091AQ  25317.17134008  .00043176  00000-0  15058-2 0  9997
2 57204  97.5407  18.8483 0009391 113.3220 246.9009 15.29453678131654
ARCCUBE-1 (RS25S)
1 57205U 23091AR  25316.89164988  .01007680  00000-0  36269-2 0  9994
2 57205  97.5165  31.3262 0002495 283.5622  76.5371 15.86298762132491
AHMAT-1 (RS41S)
1 57206U 23091AS  25317.14856705  .00070502  00000-0  17815-2 0  9997
2 57206  97.5361  22.6197 0007148 109.1856 251.0163 15.39522702131920
SITRO-AIS-11 (SMIRENNY)
1 57208U 23091AU  25317.16671733  .00042305  00000-0  14651-2 0  9992
2 57208  97.5406  18.9836 0009291 113.2746 246.9473 15.29688742131669
KUZGTU-1 (RS47S)
1 57217U 23091AV  25317.18983620  .00032305  00000-0  13336-2 0  9993
2 57217  97.5391  14.9988 0013517 133.8736 226.3620 15.23880915131418
STRATOSAT-TK1-E (RS52SE)
1 57323U 23091AX  25317.14004940  .00103076  00000-0  21334-2 0  9997
2 57323  97.5354  23.1934 0008173 114.7361 245.4739 15.45366824129830
STRATOSAT-TK1-D (RS52SD)
1 57326U 23091BA  25317.22432154  .00094675  00000-0  20702-2 0  9993
2 57326  97.5345  22.7164 0008420 115.9421 244.2695 15.43772367129657
METEOR M2-4
1 59051U 24039A   25317.16087434  .00000141  00000-0  82653-4 0  9993
2 59051  98.6722 274.5404 0008151  76.6709 283.5377 14.22394487 88557
ZORKIY-2M 2
1 59064U 24039P   25317.20739670  .00260619  00000-0  13226-2 0  9994
2 59064  97.4319 298.3493 0009741 115.4202 244.8075 15.80734692 96115
PARS-1
1 59065U 24039Q   25317.17860742  .00022725  00000-0  56800-3 0  9996
2 59065  97.4602 287.5124 0010922 162.9752 197.1862 15.40085683 95334
SITRO-AIS-25
1 59066U 24039R   25317.21373690  .00011625  00000-0  94625-3 0  9997
2 59066  95.3931  86.8534 0150895   2.8303 357.3739 14.91036038 92515
SITRO-AIS-26
1 59067U 24039S   25317.18845576  .00011191  00000-0  91444-3 0  9995
2 59067  95.3936  86.7728 0151113   3.3549 356.8651 14.90875985 92504
SITRO-AIS-27
1 59068U 24039T   25317.21523691  .00011457  00000-0  92929-3 0  9995
2 59068  95.3932  86.9716 0150325   2.2487 357.9379 14.91228369 92523
SITRO-AIS-28
1 59071U 24039U   25317.19802390  .00011419  00000-0  92549-3 0  9998
2 59071  95.3937  86.9950 0150165   2.2569 357.9299 14.91274063 92528
SONATE-2
1 59112U 24043Q   25316.84024822  .00050982  00000-0  11541-2 0  9996
2 59112  97.5310  92.0288 0008703 274.0074  86.0178 15.42927544 94361
HORS-1
1 57188U 23091Y   25317.17294160  .00024570  00000-0  10739-2 0  9992
2 57188  97.5399  14.9005 0011064 126.4113 233.8144 15.22029113131402
HORS-2
1 57196U 23091AG  25317.11377332  .00034429  00000-0  13575-2 0  9993
2 57196  97.5412  16.8207 0010451 123.1443 237.0799 15.25443243131512
ZORKIY-2M 6
1 59774U 24092B   25317.14538882  .00026097  00000-0  10979-2 0  9998
2 59774  97.6283  76.5466 0009518 215.2249 144.8359 15.23330160 82582
ZORKIY-2M 4
1 59775U 24092C   25317.21583149  .00026546  00000-0  10992-2 0  9997
2 59775  97.6417  77.8496 0009485 218.3892 141.6671 15.23865631 82623
